CCSDS_OMM_VERS = 2.0
CREATION_DATE  = 
ORIGINATOR     = 

OBJECT_NAME    = CZ-2C R/B
OBJECT_ID      = 2022-132E
CENTER_NAME    = EARTH
REF_FRAME      = TEME
TIME_SYSTEM    = UTC
MEAN_ELEMENT_THEORY = SGP/SGP4

EPOCH          = 2026-02-18T12:34:38.555040
MEAN_MOTION    = 15.60125504
ECCENTRICITY   = .0019765
INCLINATION    = 97.2957
RA_OF_ASC_NODE = 52.2868
ARG_OF_PERICENTER = 153.8230
MEAN_ANOMALY   = 206.4031

EPHEMERIS_TYPE = 0
CLASSIFICATION_TYPE = U
NORAD_CAT_ID   = 54039
ELEMENT_SET_NO = 999
REV_AT_EPOCH   = 18738
BSTAR          = .44722E-3
MEAN_MOTION_DOT = .36627E-3
MEAN_MOTION_DDOT = 0

CCSDS_OMM_VERS = 2.0
CREATION_DATE  = 
ORIGINATOR     = 

OBJECT_NAME    = GSLV R/B
OBJECT_ID      = 2022-138AN
CENTER_NAME    = EARTH
REF_FRAME      = TEME
TIME_SYSTEM    = UTC
MEAN_ELEMENT_THEORY = SGP/SGP4

EPOCH          = 2026-02-18T20:47:48.897024
MEAN_MOTION    = 14.96623276
ECCENTRICITY   = .0020318
INCLINATION    = 87.3878
RA_OF_ASC_NODE = 172.6604
ARG_OF_PERICENTER = 214.7167
MEAN_ANOMALY   = 145.2740

EPHEMERIS_TYPE = 0
CLASSIFICATION_TYPE = U
NORAD_CAT_ID   = 54149
ELEMENT_SET_NO = 999
REV_AT_EPOCH   = 18111
BSTAR          = .28044E-3
MEAN_MOTION_DOT = .3235E-4
MEAN_MOTION_DDOT = 0

CCSDS_OMM_VERS = 2.0
CREATION_DATE  = 
ORIGINATOR     = 

OBJECT_NAME    = XRISM
OBJECT_ID      = 2023-137A
CENTER_NAME    = EARTH
REF_FRAME      = TEME
TIME_SYSTEM    = UTC
MEAN_ELEMENT_THEORY = SGP/SGP4

EPOCH          = 2026-02-18T10:07:53.211360
MEAN_MOTION    = 15.11251111
ECCENTRICITY   = .0008236
INCLINATION    = 31.0028
RA_OF_ASC_NODE = 48.2585
ARG_OF_PERICENTER = 207.4674
MEAN_ANOMALY   = 152.5530

EPHEMERIS_TYPE = 0
CLASSIFICATION_TYPE = U
NORAD_CAT_ID   = 57800
ELEMENT_SET_NO = 999
REV_AT_EPOCH   = 13487
BSTAR          = .29486E-3
MEAN_MOTION_DOT = .5182E-4
MEAN_MOTION_DDOT = 0

CCSDS_OMM_VERS = 2.0
CREATION_DATE  = 
ORIGINATOR     = 

OBJECT_NAME    = ACS3
OBJECT_ID      = 2024-077B
CENTER_NAME    = EARTH
REF_FRAME      = TEME
TIME_SYSTEM    = UTC
MEAN_ELEMENT_THEORY = SGP/SGP4

EPOCH          = 2026-02-18T20:13:44.271264
MEAN_MOTION    = 13.88778168
ECCENTRICITY   = .0048541
INCLINATION    = 97.2179
RA_OF_ASC_NODE = 355.1925
ARG_OF_PERICENTER = 131.8960
MEAN_ANOMALY   = 228.6359

EPHEMERIS_TYPE = 0
CLASSIFICATION_TYPE = U
NORAD_CAT_ID   = 59588
ELEMENT_SET_NO = 999
REV_AT_EPOCH   = 9158
BSTAR          = .1571E-1
MEAN_MOTION_DOT = .19155E-3
MEAN_MOTION_DDOT = 0

CCSDS_OMM_VERS = 2.0
CREATION_DATE  = 
ORIGINATOR     = 

OBJECT_NAME    = SZ-21 MODULE
OBJECT_ID      = 2025-246C
CENTER_NAME    = EARTH
REF_FRAME      = TEME
TIME_SYSTEM    = UTC
MEAN_ELEMENT_THEORY = SGP/SGP4

EPOCH          = 2026-02-18T03:13:55.040448
MEAN_MOTION    = 15.67019082
ECCENTRICITY   = .00018684
INCLINATION    = 41.4764
RA_OF_ASC_NODE = 323.5946
ARG_OF_PERICENTER = 299.0458
MEAN_ANOMALY   = 61.0196

EPHEMERIS_TYPE = 0
CLASSIFICATION_TYPE = U
NORAD_CAT_ID   = 66515
ELEMENT_SET_NO = 999
REV_AT_EPOCH   = 1500
BSTAR          = .29213369E-3
MEAN_MOTION_DOT = .31807E-3
MEAN_MOTION_DDOT = 0

