CZ-2C R/B               
1 54039U 22132E   26049.52405735  .00036627  00000+0  44722-3 0  9998
2 54039  97.2957  52.2868 0019765 153.8230 206.4031 15.60125504187385
GSLV R/B                
1 54149U 22138AN  26049.86653816  .00003235  00000+0  28044-3 0  9996
2 54149  87.3878 172.6604 0020318 214.7167 145.2740 14.96623276181115
XRISM                   
1 57800U 23137A   26049.42214365  .00005182  00000+0  29486-3 0  9991
2 57800  31.0028  48.2585 0008236 207.4674 152.5530 15.11251111134870
ACS3                    
1 59588U 24077B   26049.84287351  .00019155  00000+0  15710-1 0  9999
2 59588  97.2179 355.1925 0048541 131.8960 228.6359 13.88778168 91587
SZ-21 MODULE            
1 66515U 25246C   26049.13466482  .00031807  00000+0  29213-3 0  9995
2 66515  41.4764 323.5946 0001868 299.0458  61.0196 15.67019082 15001
